ORBCOMM FM37            
1 33064U 08031E   25044.55136299  .00003211  00000+0  45868-3 0  9993
2 33064  48.4377 211.0999 0006458 206.0324 229.1538 14.78936178895749
ORBCOMM FM40            
1 33065U 08031F   25044.57083809  .00004252  00000+0  57052-3 0  9998
2 33065  48.4401 197.0179 0007929 217.1408 189.6816 14.80951586895833
VESSELSAT 1             
1 37840U 11058C   25044.51264124  .00000450  00000+0  10068-3 0  9993
2 37840  19.9614 122.2184 0013482 266.4410  93.4453 14.11307776688811
ORBCOMM FM109           
1 40086U 14040A   25044.56419769  .00001251  00000+0  30748-3 0  9992
2 40086  47.0022 240.0068 0001658 148.4781 211.6204 14.57792855563023
ORBCOMM FM107           
1 40087U 14040B   25044.52964150  .00001289  00000+0  31525-3 0  9993
2 40087  47.0039 241.1755 0000792  91.6334 268.4642 14.57856010563095
ORBCOMM FM106           
1 40088U 14040C   25044.53355163  .00001969  00000+0  36447-3 0  9996
2 40088  47.0596  73.0948 0017450 216.5496 143.4204 14.68877560565291
ORBCOMM FM111           
1 40089U 14040D   25044.42531164  .00004490  00000+0  53920-3 0  9999
2 40089  47.0023 300.2419 0030469 319.8429  40.0216 14.85133976571829
ORBCOMM FM104           
1 40090U 14040E   25044.72693547  .00001098  00000+0  28313-3 0  9997
2 40090  47.0045 272.3863 0016431 359.8249   0.2627 14.56308296562724
